ONEWEB-0446             
1 51640U 22012U   25294.47716765  .00000531  00000+0  14851-2 0  9997
2 51640  87.8762  83.8787 0001816  91.1062 269.0273 13.10374395178069
ONEWEB-0448             
1 51641U 22012V   25294.78757751  .00000624  00000+0  17502-2 0  9991
2 51641  87.8760  83.8164 0001552  96.7545 263.3759 13.10373764178077
ONEWEB-0449             
1 51642U 22012W   25294.79255727  .00000647  00000+0  18172-2 0  9998
2 51642  87.8756  83.7851 0001290  79.3100 280.8172 13.10372303178080
ONEWEB-0451             
1 51643U 22012X   25294.84521539  .00000047  00000+0  88674-4 0  9992
2 51643  87.9117  53.2229 0001578  96.4352 263.6959 13.17648598182279
ONEWEB-0452             
1 51644U 22012Y   25294.84351479  .00000062  00000+0  12695-3 0  9993
2 51644  87.9109  53.2824 0001388 100.0955 260.0333 13.17647327182289
ONEWEB-0456             
1 51646U 22012AA  25294.80250824  .00000448  00000+0  12481-2 0  9993
2 51646  87.8769  83.7486 0001637 101.2440 258.8872 13.10369739178125
ONEWEB-0457             
1 51647U 22012AB  25294.77927414  .00000246  00000+0  66887-3 0  9992
2 51647  87.8763  83.8061 0001664  79.3792 280.7522 13.10374526178121
ONEWEB-0458             
1 51648U 22012AC  25294.80085296  .00000509  00000+0  14226-2 0  9991
2 51648  87.8759  83.7729 0001404  94.2234 265.9054 13.10370473178083
ONEWEB-0461             
1 51649U 22012AD  25294.78952889  .00000040  00000+0  71086-4 0  9999
2 51649  87.9118  53.2484 0001793  96.3231 263.8104 13.17648943182495
ONEWEB-0463             
1 51650U 22012AE  25294.77096670  .00000042  00000+0  74891-4 0  9996
2 51650  87.9099  53.3054 0001627  98.9355 261.1960 13.17649102182275
ONEWEB-0464             
1 51651U 22012AF  25294.79753595  .00000599  00000+0  16787-2 0  9990
2 51651  87.8757  83.8125 0001679 105.0420 255.0893 13.10370988178103
ONEWEB-0468             
1 51652U 22012AG  25294.80417742  .00000353  00000+0  97442-3 0  9990
2 51652  87.8759  83.8036 0001478 102.7134 257.4159 13.10372895178087
ONEWEB-0473             
1 51653U 22012AH  25294.78923843  .00000642  00000+0  18026-2 0  9993
2 51653  87.8760  83.8100 0001471  96.2022 263.9273 13.10373509178080
ONEWEB-0474             
1 51654U 22012AJ  25294.78093451  .00000411  00000+0  11403-2 0  9993
2 51654  87.8770  83.7745 0001521 104.4927 255.6369 13.10374315178077
ONEWEB-0475             
1 51655U 22012AK  25294.78277663  .00000004  00000+0 -23018-4 0  9999
2 51655  87.9107  53.2883 0001232 124.9974 235.1273 13.17648941182298
ONEWEB-0490             
1 54113U 22138A   25294.69075206 -.00000029  00000+0 -10519-3 0  9998
2 54113  87.9262 352.4006 0001935 104.7590 255.3757 13.19727280145378
ONEWEB-0492             
1 54114U 22138B   25294.71605411  .00000051  00000+0  95334-4 0  9991
2 54114  87.9253 352.4152 0002035 103.1153 257.0207 13.19725474145384
