[{"OBJECT_NAME":"ONEWEB-0446","OBJECT_ID":"2022-012U","EPOCH":"2025-10-21T11:27:07.284960","MEAN_MOTION":13.10374395,"ECCENTRICITY":0.0001816,"INCLINATION":87.8762,"RA_OF_ASC_NODE":83.8787,"ARG_OF_PERICENTER":91.1062,"MEAN_ANOMALY":269.0273,"EPHEMERIS_TYPE":0,"CLASSIFICATION_TYPE":"U","NORAD_CAT_ID":51640,"ELEMENT_SET_NO":999,"REV_AT_EPOCH":17806,"BSTAR":0.0014851,"MEAN_MOTION_DOT":5.31e-6,"MEAN_MOTION_DDOT":0},{"OBJECT_NAME":"ONEWEB-0448","OBJECT_ID":"2022-012V","EPOCH":"2025-10-21T18:54:06.696864","MEAN_MOTION":13.10373764,"ECCENTRICITY":0.0001552,"INCLINATION":87.876,"RA_OF_ASC_NODE":83.8164,"ARG_OF_PERICENTER":96.7545,"MEAN_ANOMALY":263.3759,"EPHEMERIS_TYPE":0,"CLASSIFICATION_TYPE":"U","NORAD_CAT_ID":51641,"ELEMENT_SET_NO":999,"REV_AT_EPOCH":17807,"BSTAR":0.0017502,"MEAN_MOTION_DOT":6.24e-6,"MEAN_MOTION_DDOT":0},{"OBJECT_NAME":"ONEWEB-0449","OBJECT_ID":"2022-012W","EPOCH":"2025-10-21T19:01:16.948128","MEAN_MOTION":13.10372303,"ECCENTRICITY":0.000129,"INCLINATION":87.8756,"RA_OF_ASC_NODE":83.7851,"ARG_OF_PERICENTER":79.31,"MEAN_ANOMALY":280.8172,"EPHEMERIS_TYPE":0,"CLASSIFICATION_TYPE":"U","NORAD_CAT_ID":51642,"ELEMENT_SET_NO":999,"REV_AT_EPOCH":17808,"BSTAR":0.0018172,"MEAN_MOTION_DOT":6.47e-6,"MEAN_MOTION_DDOT":0},{"OBJECT_NAME":"ONEWEB-0451","OBJECT_ID":"2022-012X","EPOCH":"2025-10-21T20:17:06.609696","MEAN_MOTION":13.17648598,"ECCENTRICITY":0.0001578,"INCLINATION":87.9117,"RA_OF_ASC_NODE":53.2229,"ARG_OF_PERICENTER":96.4352,"MEAN_ANOMALY":263.6959,"EPHEMERIS_TYPE":0,"CLASSIFICATION_TYPE":"U","NORAD_CAT_ID":51643,"ELEMENT_SET_NO":999,"REV_AT_EPOCH":18227,"BSTAR":8.8674e-5,"MEAN_MOTION_DOT":4.7e-7,"MEAN_MOTION_DDOT":0},{"OBJECT_NAME":"ONEWEB-0452","OBJECT_ID":"2022-012Y","EPOCH":"2025-10-21T20:14:39.677856","MEAN_MOTION":13.17647327,"ECCENTRICITY":0.0001388,"INCLINATION":87.9109,"RA_OF_ASC_NODE":53.2824,"ARG_OF_PERICENTER":100.0955,"MEAN_ANOMALY":260.0333,"EPHEMERIS_TYPE":0,"CLASSIFICATION_TYPE":"U","NORAD_CAT_ID":51644,"ELEMENT_SET_NO":999,"REV_AT_EPOCH":18228,"BSTAR":0.00012695,"MEAN_MOTION_DOT":6.2e-7,"MEAN_MOTION_DDOT":0},{"OBJECT_NAME":"ONEWEB-0456","OBJECT_ID":"2022-012AA","EPOCH":"2025-10-21T19:15:36.711936","MEAN_MOTION":13.10369739,"ECCENTRICITY":0.0001637,"INCLINATION":87.8769,"RA_OF_ASC_NODE":83.7486,"ARG_OF_PERICENTER":101.244,"MEAN_ANOMALY":258.8872,"EPHEMERIS_TYPE":0,"CLASSIFICATION_TYPE":"U","NORAD_CAT_ID":51646,"ELEMENT_SET_NO":999,"REV_AT_EPOCH":17812,"BSTAR":0.0012481,"MEAN_MOTION_DOT":4.48e-6,"MEAN_MOTION_DDOT":0},{"OBJECT_NAME":"ONEWEB-0457","OBJECT_ID":"2022-012AB","EPOCH":"2025-10-21T18:42:09.285696","MEAN_MOTION":13.10374526,"ECCENTRICITY":0.0001664,"INCLINATION":87.8763,"RA_OF_ASC_NODE":83.8061,"ARG_OF_PERICENTER":79.3792,"MEAN_ANOMALY":280.7522,"EPHEMERIS_TYPE":0,"CLASSIFICATION_TYPE":"U","NORAD_CAT_ID":51647,"ELEMENT_SET_NO":999,"REV_AT_EPOCH":17812,"BSTAR":0.00066887,"MEAN_MOTION_DOT":2.46e-6,"MEAN_MOTION_DDOT":0},{"OBJECT_NAME":"ONEWEB-0458","OBJECT_ID":"2022-012AC","EPOCH":"2025-10-21T19:13:13.695744","MEAN_MOTION":13.10370473,"ECCENTRICITY":0.0001404,"INCLINATION":87.8759,"RA_OF_ASC_NODE":83.7729,"ARG_OF_PERICENTER":94.2234,"MEAN_ANOMALY":265.9054,"EPHEMERIS_TYPE":0,"CLASSIFICATION_TYPE":"U","NORAD_CAT_ID":51648,"ELEMENT_SET_NO":999,"REV_AT_EPOCH":17808,"BSTAR":0.0014226,"MEAN_MOTION_DOT":5.09e-6,"MEAN_MOTION_DDOT":0},{"OBJECT_NAME":"ONEWEB-0461","OBJECT_ID":"2022-012AD","EPOCH":"2025-10-21T18:56:55.296096","MEAN_MOTION":13.17648943,"ECCENTRICITY":0.0001793,"INCLINATION":87.9118,"RA_OF_ASC_NODE":53.2484,"ARG_OF_PERICENTER":96.3231,"MEAN_ANOMALY":263.8104,"EPHEMERIS_TYPE":0,"CLASSIFICATION_TYPE":"U","NORAD_CAT_ID":51649,"ELEMENT_SET_NO":999,"REV_AT_EPOCH":18249,"BSTAR":7.1086e-5,"MEAN_MOTION_DOT":4.0e-7,"MEAN_MOTION_DDOT":0},{"OBJECT_NAME":"ONEWEB-0463","OBJECT_ID":"2022-012AE","EPOCH":"2025-10-21T18:30:11.522880","MEAN_MOTION":13.17649102,"ECCENTRICITY":0.0001627,"INCLINATION":87.9099,"RA_OF_ASC_NODE":53.3054,"ARG_OF_PERICENTER":98.9355,"MEAN_ANOMALY":261.196,"EPHEMERIS_TYPE":0,"CLASSIFICATION_TYPE":"U","NORAD_CAT_ID":51650,"ELEMENT_SET_NO":999,"REV_AT_EPOCH":18227,"BSTAR":7.4891e-5,"MEAN_MOTION_DOT":4.2e-7,"MEAN_MOTION_DDOT":0},{"OBJECT_NAME":"ONEWEB-0464","OBJECT_ID":"2022-012AF","EPOCH":"2025-10-21T19:08:27.106080","MEAN_MOTION":13.10370988,"ECCENTRICITY":0.0001679,"INCLINATION":87.8757,"RA_OF_ASC_NODE":83.8125,"ARG_OF_PERICENTER":105.042,"MEAN_ANOMALY":255.0893,"EPHEMERIS_TYPE":0,"CLASSIFICATION_TYPE":"U","NORAD_CAT_ID":51651,"ELEMENT_SET_NO":999,"REV_AT_EPOCH":17810,"BSTAR":0.0016787,"MEAN_MOTION_DOT":5.99e-6,"MEAN_MOTION_DDOT":0},{"OBJECT_NAME":"ONEWEB-0468","OBJECT_ID":"2022-012AG","EPOCH":"2025-10-21T19:18:00.929088","MEAN_MOTION":13.10372895,"ECCENTRICITY":0.0001478,"INCLINATION":87.8759,"RA_OF_ASC_NODE":83.8036,"ARG_OF_PERICENTER":102.7134,"MEAN_ANOMALY":257.4159,"EPHEMERIS_TYPE":0,"CLASSIFICATION_TYPE":"U","NORAD_CAT_ID":51652,"ELEMENT_SET_NO":999,"REV_AT_EPOCH":17808,"BSTAR":0.00097442,"MEAN_MOTION_DOT":3.53e-6,"MEAN_MOTION_DDOT":0},{"OBJECT_NAME":"ONEWEB-0473","OBJECT_ID":"2022-012AH","EPOCH":"2025-10-21T18:56:30.200352","MEAN_MOTION":13.10373509,"ECCENTRICITY":0.0001471,"INCLINATION":87.876,"RA_OF_ASC_NODE":83.81,"ARG_OF_PERICENTER":96.2022,"MEAN_ANOMALY":263.9273,"EPHEMERIS_TYPE":0,"CLASSIFICATION_TYPE":"U","NORAD_CAT_ID":51653,"ELEMENT_SET_NO":999,"REV_AT_EPOCH":17808,"BSTAR":0.0018026,"MEAN_MOTION_DOT":6.42e-6,"MEAN_MOTION_DDOT":0},{"OBJECT_NAME":"ONEWEB-0474","OBJECT_ID":"2022-012AJ","EPOCH":"2025-10-21T18:44:32.741664","MEAN_MOTION":13.10374315,"ECCENTRICITY":0.0001521,"INCLINATION":87.877,"RA_OF_ASC_NODE":83.7745,"ARG_OF_PERICENTER":104.4927,"MEAN_ANOMALY":255.6369,"EPHEMERIS_TYPE":0,"CLASSIFICATION_TYPE":"U","NORAD_CAT_ID":51654,"ELEMENT_SET_NO":999,"REV_AT_EPOCH":17807,"BSTAR":0.0011403,"MEAN_MOTION_DOT":4.11e-6,"MEAN_MOTION_DDOT":0},{"OBJECT_NAME":"ONEWEB-0475","OBJECT_ID":"2022-012AK","EPOCH":"2025-10-21T18:47:11.900832","MEAN_MOTION":13.17648941,"ECCENTRICITY":0.0001232,"INCLINATION":87.9107,"RA_OF_ASC_NODE":53.2883,"ARG_OF_PERICENTER":124.9974,"MEAN_ANOMALY":235.1273,"EPHEMERIS_TYPE":0,"CLASSIFICATION_TYPE":"U","NORAD_CAT_ID":51655,"ELEMENT_SET_NO":999,"REV_AT_EPOCH":18229,"BSTAR":-2.3018e-5,"MEAN_MOTION_DOT":4.0e-8,"MEAN_MOTION_DDOT":0},{"OBJECT_NAME":"ONEWEB-0490","OBJECT_ID":"2022-138A","EPOCH":"2025-10-21T16:34:40.977984","MEAN_MOTION":13.1972728,"ECCENTRICITY":0.0001935,"INCLINATION":87.9262,"RA_OF_ASC_NODE":352.4006,"ARG_OF_PERICENTER":104.759,"MEAN_ANOMALY":255.3757,"EPHEMERIS_TYPE":0,"CLASSIFICATION_TYPE":"U","NORAD_CAT_ID":54113,"ELEMENT_SET_NO":999,"REV_AT_EPOCH":14537,"BSTAR":-0.00010519,"MEAN_MOTION_DOT":-2.9e-7,"MEAN_MOTION_DDOT":0},{"OBJECT_NAME":"ONEWEB-0492","OBJECT_ID":"2022-138B","EPOCH":"2025-10-21T17:11:07.075104","MEAN_MOTION":13.19725474,"ECCENTRICITY":0.0002035,"INCLINATION":87.9253,"RA_OF_ASC_NODE":352.4152,"ARG_OF_PERICENTER":103.1153,"MEAN_ANOMALY":257.0207,"EPHEMERIS_TYPE":0,"CLASSIFICATION_TYPE":"U","NORAD_CAT_ID":54114,"ELEMENT_SET_NO":999,"REV_AT_EPOCH":14538,"BSTAR":9.5334e-5,"MEAN_MOTION_DOT":5.1e-7,"MEAN_MOTION_DDOT":0}]
